{
  "links" : {
    "next" : "https://api.nasa.gov/neo/rest/v1/feed?start_date=1999-12-16&end_date=1999-12-16&detailed=true&api_key=t0TVs3DtDT2H8Oy2Zy8m2eVrNsAVKAexjcZXUckd",
    "prev" : "https://api.nasa.gov/neo/rest/v1/feed?start_date=1999-12-14&end_date=1999-12-14&detailed=true&api_key=t0TVs3DtDT2H8Oy2Zy8m2eVrNsAVKAexjcZXUckd",
    "self" : "https://api.nasa.gov/neo/rest/v1/feed?start_date=1999-12-15&end_date=1999-12-15&detailed=true&api_key=t0TVs3DtDT2H8Oy2Zy8m2eVrNsAVKAexjcZXUckd"
  },
  "element_count" : 2,
  "near_earth_objects" : {
    "1999-12-15" : [ {
      "links" : {
        "self" : "https://api.nasa.gov/neo/rest/v1/neo/3624901?api_key=t0TVs3DtDT2H8Oy2Zy8m2eVrNsAVKAexjcZXUckd"
      },
      "neo_reference_id" : "3624901",
      "name" : "(2013 BF27)",
      "nasa_jpl_url" : "http://ssd.jpl.nasa.gov/sbdb.cgi?sstr=3624901",
      "absolute_magnitude_h" : 21.6,
      "estimated_diameter" : {
        "kilometers" : {
          "estimated_diameter_min" : 0.1272198785,
          "estimated_diameter_max" : 0.2844722965
        },
        "meters" : {
          "estimated_diameter_min" : 127.2198785394,
          "estimated_diameter_max" : 284.4722965033
        },
        "miles" : {
          "estimated_diameter_min" : 0.0790507431,
          "estimated_diameter_max" : 0.1767628354
        },
        "feet" : {
          "estimated_diameter_min" : 417.3880663071,
          "estimated_diameter_max" : 933.3080892598
        }
      },
      "is_potentially_hazardous_asteroid" : false,
      "close_approach_data" : [ {
        "close_approach_date" : "1999-12-15",
        "epoch_date_close_approach" : 945244800000,
        "relative_velocity" : {
          "kilometers_per_second" : "7.2544749313",
          "kilometers_per_hour" : "26116.1097528578",
          "miles_per_hour" : "16227.5349739354"
        },
        "miss_distance" : {
          "astronomical" : "0.4780354245",
          "lunar" : "185.9557800293",
          "kilometers" : "71513080",
          "miles" : "44436168"
        },
        "orbiting_body" : "Earth"
      } ],
      "orbital_data" : {
        "orbit_id" : "16",
        "orbit_determination_date" : "2017-04-06 08:47:03",
        "orbit_uncertainty" : "2",
        "minimum_orbit_intersection" : ".157463",
        "jupiter_tisserand_invariant" : "4.762",
        "epoch_osculation" : "2458000.5",
        "eccentricity" : ".2298044542067379",
        "semi_major_axis" : "1.37826305373658",
        "inclination" : "9.829836637423101",
        "ascending_node_longitude" : "290.5518237692917",
        "orbital_period" : "591.0124076780884",
        "perihelion_distance" : "1.061532064919333",
        "perihelion_argument" : "253.44975538",
        "aphelion_distance" : "1.694994042553827",
        "perihelion_time" : "2458165.383358355293",
        "mean_anomaly" : "259.565545093875",
        "mean_motion" : ".6091242676517279",
        "equinox" : "J2000"
      }
    }, {
      "links" : {
        "self" : "https://api.nasa.gov/neo/rest/v1/neo/3736803?api_key=t0TVs3DtDT2H8Oy2Zy8m2eVrNsAVKAexjcZXUckd"
      },
      "neo_reference_id" : "3736803",
      "name" : "(2015 XQ378)",
      "nasa_jpl_url" : "http://ssd.jpl.nasa.gov/sbdb.cgi?sstr=3736803",
      "absolute_magnitude_h" : 24.2,
      "estimated_diameter" : {
        "kilometers" : {
          "estimated_diameter_min" : 0.0384197891,
          "estimated_diameter_max" : 0.0859092601
        },
        "meters" : {
          "estimated_diameter_min" : 38.4197891064,
          "estimated_diameter_max" : 85.9092601232
        },
        "miles" : {
          "estimated_diameter_min" : 0.0238729428,
          "estimated_diameter_max" : 0.0533815229
        },
        "feet" : {
          "estimated_diameter_min" : 126.0491808919,
          "estimated_diameter_max" : 281.8545369825
        }
      },
      "is_potentially_hazardous_asteroid" : false,
      "close_approach_data" : [ {
        "close_approach_date" : "1999-12-15",
        "epoch_date_close_approach" : 945244800000,
        "relative_velocity" : {
          "kilometers_per_second" : "24.2531816587",
          "kilometers_per_hour" : "87311.4539711702",
          "miles_per_hour" : "54251.942052253"
        },
        "miss_distance" : {
          "astronomical" : "0.4593505326",
          "lunar" : "178.6873474121",
          "kilometers" : "68717864",
          "miles" : "42699300"
        },
        "orbiting_body" : "Earth"
      } ],
      "orbital_data" : {
        "orbit_id" : "9",
        "orbit_determination_date" : "2017-04-06 08:29:50",
        "orbit_uncertainty" : "6",
        "minimum_orbit_intersection" : ".0625217",
        "jupiter_tisserand_invariant" : "6.396",
        "epoch_osculation" : "2458000.5",
        "eccentricity" : ".3232941137497289",
        "semi_major_axis" : ".9277780540606337",
        "inclination" : "9.722163141535853",
        "ascending_node_longitude" : "256.7157482775057",
        "orbital_period" : "326.4108376147315",
        "perihelion_distance" : ".627832870316653",
        "perihelion_argument" : "322.7410230855123",
        "aphelion_distance" : "1.227723237804614",
        "perihelion_time" : "2458120.809232505704",
        "mean_anomaly" : "227.3103993159241",
        "mean_motion" : "1.102904556205068",
        "equinox" : "J2000"
      }
    } ]
  }
}